ORBCOMM FM103           
1 40091U 14040F   25334.94650620  .00000798  00000+0  20664-3 0  9996
2 40091  47.0062 310.0904 0002453 311.0261  49.0413 14.58500105588449
ORBCOMM FM114           
1 41179U 15081A   25334.96354923  .00000627  00000+0  17003-3 0  9993
2 41179  47.0018 218.9702 0001932  18.4580 341.6375 14.58535471528810
ORBCOMM FM119           
1 41180U 15081B   25334.82206584  .00000769  00000+0  20045-3 0  9996
2 41180  46.9987 128.9946 0000563 123.1695 236.9245 14.58465499530047
ORBCOMM FM105           
1 41181U 15081C   25334.89550890  .00000263  00000+0  11845-3 0  9993
2 41181  46.9996 149.8739 0001739 332.9320  27.1470 14.45386115524867
ORBCOMM FM110           
1 41182U 15081D   25334.95369759  .00000889  00000+0  22539-3 0  9999
2 41182  47.0009 218.5248 0002612 252.6299 107.4301 14.58601930528686
ORBCOMM FM118           
1 41183U 15081E   25334.98807528  .00000767  00000+0  19986-3 0  9991
2 41183  47.0032 218.6564 0002728 208.3636 151.7101 14.58546290528795
ORBCOMM FM112           
1 41184U 15081F   25334.92237393  .00000958  00000+0  24003-3 0  9991
2 41184  46.9974 127.5077 0000885   7.6202 352.4697 14.58615314530008
ORBCOMM FM113           
1 41185U 15081G   25334.83117849  .00000906  00000+0  22905-3 0  9997
2 41185  46.9991 128.2933 0000570  28.5835 331.5082 14.58605615529975
